TRITON-1                
1 39427U 13066M   26181.80177300  .00001393  00000+0  17168-3 0  9996
2 39427  97.8244  91.2992 0089394 188.9658 170.9963 14.81748697676101
GOMX-1                  
1 39430U 13066Q   26181.80435705  .00001686  00000+0  25754-3 0  9991
2 39430  97.6472  21.4077 0129520  34.2848 326.6634 14.69505340671916
CUBEBUG-2 (LO-74)       
1 39440U 13066AA  26181.79482017  .00004655  00000+0  43003-3 0  9994
2 39440  97.8910 130.8314 0056909 344.0423  15.9001 14.93871723679020
NEE-02 KRYSAOR          
1 39441U 13066AB  26181.80508646  .00002498  00000+0  27637-3 0  9992
2 39441  97.8896 120.9230 0066766  26.4051 334.0541 14.86680801678223
FUNCUBE-1 (AO-73)       
1 39444U 13066AE  26181.84406837  .00007343  00000+0  45304-3 0  9993
2 39444  97.8284 153.5766 0037140 154.4436 205.8639 15.09653397681724
UWE-3                   
1 39446U 13066AG  26181.85061509  .00003219  00000+0  27807-3 0  9995
2 39446  97.8711 138.0184 0047038 274.5118  85.0730 14.97126889679624
SMDC ONE 2.4            
1 39469U 13072H   26181.63538461  .00012041  00000+0  45004-3 0  9991
2 39469 120.4922  44.0156 0146939  33.2579 327.7630 15.18452903119876
COSMOS 2488 (RODNIK-S 7)
1 39483U 13076A   26181.88310140  .00000104  00000+0  67644-3 0  9991
2 39483  82.4831 160.1619 0020861  67.1226 293.2053 12.42906413567598
COSMOS 2489 (RODNIK-S 8)
1 39484U 13076B   26181.85859172  .00000107  00000+0  69744-3 0  9998
2 39484  82.4867 161.5603 0022691  66.9870 293.3599 12.42880113567641
COSMOS 2490 (RODNIK-S 9)
1 39485U 13076C   26181.91099837  .00000192  00000+0  13120-2 0  9990
2 39485  82.4815 159.5892 0022891  81.6869 278.6805 12.42879422567586
KAZEOSAT 1              
1 39731U 14024A   26181.82921078 -.00000050  00000+0 -21182-5 0  9994
2 39731  98.3209 253.9370 0001175  76.7731 283.3589 14.42084369640526
COSMOS 2496 (RODNIK-S *)
1 39761U 14028A   26181.78800233  .00000065  00000+0  39969-3 0  9999
2 39761  82.4462 100.2138 0021265  50.8535 309.4430 12.42879015549203
COSMOS 2497 (RODNIK-S *)
1 39762U 14028B   26181.84360660  .00000050  00000+0  28815-3 0  9994
2 39762  82.4510 101.8740 0021772  45.9486 314.3382 12.42894690549215
COSMOS 2498 (RODNIK-S *)
1 39763U 14028C   26181.82026387  .00000105  00000+0  68769-3 0  9991
2 39763  82.4470 100.3698 0022487  45.5670 314.7245 12.42980704549249
HODOYOSHI-4             
1 40011U 14033B   26181.81816308  .00001624  00000+0  18125-3 0  9992
2 40011  97.5450   5.9831 0021921 260.3303  99.5438 14.88160791650831
UNISAT-6                
1 40012U 14033C   26181.64711897  .00002651  00000+0  28727-3 0  9991
2 40012  97.7891 334.1229 0045408  25.8668 334.4805 14.88310097648163
DEIMOS-2                
1 40013U 14033D   26181.84861439  .00001118  00000+0  11070-3 0  9992
2 40013  97.5812  55.8571 0000812  59.9648 300.1652 14.93758646639766
BUGSAT-1 (TITA)         
1 40014U 14033E   26181.83432777  .00005694  00000+0  29949-3 0  9998
2 40014  98.0437 275.1823 0028973 132.5024 227.8662 15.15735894657904
SAUDISAT 4              
1 40016U 14033G   26181.64467742  .00000588  00000+0  84082-4 0  9996
2 40016  97.7599 327.3149 0045459  31.2549 329.1352 14.79561163648061
APRIZESAT 9             
1 40018U 14033J   26181.30728353  .00000803  00000+0  12497-3 0  9999
2 40018  97.9077 314.1862 0066703 157.0375 203.3840 14.74233565645497
BRITE-CA1 (TORONTO)     
1 40020U 14033L   26181.35487269  .00000937  00000+0  14834-3 0  9990
2 40020  97.9755 310.0412 0077486 234.1487 125.2508 14.72697519644156
